TISAT 1                 
1 36799U 10035E   26068.75703561  .00024554  00000+0  91005-3 0  9996
2 36799  98.0645   6.8512 0001343 159.3030 200.8262 15.27628633852505
STARLINK-31303          
1 59239U 24049J   26068.51233289 -.00000356  00000+0 -34210-5 0  9992
2 59239  43.0029 133.6902 0001716 276.0007  84.0649 15.27569977112507
